CELESTIS-02             
1 25160U 98007D   22358.09179031  .00000030  00000+0  71188-4 0  9999
2 25160 107.9864 288.6415 0061334 147.1196 223.9753 14.21674315290030
CELESTIS-03             
1 26034U 99070C   22358.54822929  .00031090  00000+0  11751-2 0  9990
2 26034  98.3001  24.3634 0007730 189.8583 170.2502 15.26903269250006
